{"type": "FeatureCollection", "features": [{"type": "Feature", "properties": {"norad_id": 25730, "name": "FENGYUN 1C", "group": "fengyun-1c-debris", "lat": -44.23726909083971, "lon": 69.84818911215291, "alt_km": 811.5702821593895, "timestamp": "2025-12-20T22:39:10.897853+00:00", "meta": {"OBJECT_NAME": "FENGYUN 1C", "OBJECT_ID": "1999-025A", "EPOCH": "2025-12-20T04:20:25.826208", "MEAN_MOTION": 14.26087072, "ECCENTRICITY": 0.00104, "INCLINATION": 98.8832, "RA_OF_ASC_NODE": 60.3154, "ARG_OF_PERICENTER": 48.1408, "MEAN_ANOMALY": 312.0657, "EPHEMERIS_TYPE": 0, "CLASSIFICATION_TYPE": "U", "NORAD_CAT_ID": 25730, "ELEMENT_SET_NO": 999, "REV_AT_EPOCH": 37243, "BSTAR": 0.00080849, "MEAN_MOTION_DOT": 1.888e-05, "MEAN_MOTION_DDOT": 0}, "tle": {"line1": "1 25730U 99025A   25354.18085447  .00001888  00000+0  80849-3 0  9994", "line2": "2 25730  98.8832  60.3154 0010400  48.1408 312.0657 14.26087072372436"}}, "geometry": {"type": "Point", "coordinates": [69.84818911215291, -44.23726909083971]}}, {"type": "Feature", "properties": {"norad_id": 29733, "name": "FENGYUN 1C DEB", "group": "fengyun-1c-debris", "lat": 42.85583158516256, "lon": 41.09064249560472, "alt_km": 1592.9959146527672, "timestamp": "2025-12-20T22:39:10.897870+00:00", "meta": {"OBJECT_NAME": "FENGYUN 1C DEB", "OBJECT_ID": "1999-025X", "EPOCH": "2025-12-20T02:12:18.520128", "MEAN_MOTION": 12.96483633, "ECCENTRICITY": 0.05697528, "INCLINATION": 99.2243, "RA_OF_ASC_NODE": 49.0393, "ARG_OF_PERICENTER": 185.1112, "MEAN_ANOMALY": 208.3107, "EPHEMERIS_TYPE": 0, "CLASSIFICATION_TYPE": "U", "NORAD_CAT_ID": 29733, "ELEMENT_SET_NO": 999, "REV_AT_EPOCH": 89215, "BSTAR": 0.001449954, "MEAN_MOTION_DOT": 8.42e-06, "MEAN_MOTION_DDOT": 0}, "tle": {"line1": "1 29733U 99025X   25354.09188102  .00000842  00000+0  14500-2 0  9992", "line2": "2 29733  99.2243  49.0393 0569752 185.1112 208.3107 12.96483633892157"}}, "geometry": {"type": "Point", "coordinates": [41.09064249560472, 42.85583158516256]}}, {"type": "Feature", "properties": {"norad_id": 29734, "name": "FENGYUN 1C DEB", "group": "fengyun-1c-debris", "lat": 78.61794278624762, "lon": -129.85175987628958, "alt_km": 1260.6134777042198, "timestamp": "2025-12-20T22:39:10.897881+00:00", "meta": {"OBJECT_NAME": "FENGYUN 1C DEB", "OBJECT_ID": "1999-025Y", "EPOCH": "2025-12-20T13:56:19.488768", "MEAN_MOTION": 12.91346355, "ECCENTRICITY": 0.06156667, "INCLINATION": 99.1705, "RA_OF_ASC_NODE": 283.203, "ARG_OF_PERICENTER": 353.9717, "MEAN_ANOMALY": 195.0844, "EPHEMERIS_TYPE": 0, "CLASSIFICATION_TYPE": "U", "NORAD_CAT_ID": 29734, "ELEMENT_SET_NO": 999, "REV_AT_EPOCH": 88649, "BSTAR": 0.0027199433, "MEAN_MOTION_DOT": 1.661e-05, "MEAN_MOTION_DDOT": 0}, "tle": {"line1": "1 29734U 99025Y   25354.58078112  .00001661  00000+0  27199-2 0  9994", "line2": "2 29734  99.1705 283.2030 0615666 353.9717 195.0844 12.91346355886496"}}, "geometry": {"type": "Point", "coordinates": [-129.85175987628958, 78.61794278624762]}}, {"type": "Feature", "properties": {"norad_id": 29735, "name": "FENGYUN 1C DEB", "group": "fengyun-1c-debris", "lat": -60.26917397877576, "lon": 71.68837161085692, "alt_km": 1280.5844876689644, "timestamp": "2025-12-20T22:39:10.897892+00:00", "meta": {"OBJECT_NAME": "FENGYUN 1C DEB", "OBJECT_ID": "1999-025Z", "EPOCH": "2025-12-20T12:01:54.468768", "MEAN_MOTION": 12.75060098, "ECCENTRICITY": 0.06974963, "INCLINATION": 99.3914, "RA_OF_ASC_NODE": 268.1637, "ARG_OF_PERICENTER": 157.9831, "MEAN_ANOMALY": 205.2847, "EPHEMERIS_TYPE": 0, "CLASSIFICATION_TYPE": "U", "NORAD_CAT_ID": 29735, "ELEMENT_SET_NO": 999, "REV_AT_EPOCH": 87514, "BSTAR": 0.0014769986, "MEAN_MOTION_DOT": 8.3e-06, "MEAN_MOTION_DDOT": 0}, "tle": {"line1": "1 29735U 99025Z   25354.50132487  .00000830  00000+0  14770-2 0  9991", "line2": "2 29735  99.3914 268.1637 0697496 157.9831 205.2847 12.75060098875142"}}, "geometry": {"type": "Point", "coordinates": [71.68837161085692, -60.26917397877576]}}, {"type": "Feature", "properties": {"norad_id": 29736, "name": "FENGYUN 1C DEB", "group": "fengyun-1c-debris", "lat": -26.48657543011184, "lon": -11.964909560578386, "alt_km": 921.101075825416, "timestamp": "2025-12-20T22:39:10.897902+00:00", "meta": {"OBJECT_NAME": "FENGYUN 1C DEB", "OBJECT_ID": "1999-025AA", "EPOCH": "2025-12-19T23:22:44.870016", "MEAN_MOTION": 12.57503149, "ECCENTRICITY": 0.0724856, "INCLINATION": 99.4031, "RA_OF_ASC_NODE": 171.9873, "ARG_OF_PERICENTER": 183.1755, "MEAN_ANOMALY": 312.1954, "EPHEMERIS_TYPE": 0, "CLASSIFICATION_TYPE": "U", "NORAD_CAT_ID": 29736, "ELEMENT_SET_NO": 999, "REV_AT_EPOCH": 86635, "BSTAR": 0.0014432, "MEAN_MOTION_DOT": 6.26e-06, "MEAN_MOTION_DDOT": 0}, "tle": {"line1": "1 29736U 99025AA  25353.97413044  .00000626  00000+0  14432-2 0  9991", "line2": "2 29736  99.4031 171.9873 0724856 183.1755 312.1954 12.57503149866353"}}, "geometry": {"type": "Point", "coordinates": [-11.964909560578386, -26.48657543011184]}}, {"type": "Feature", "properties": {"norad_id": 29737, "name": "FENGYUN 1C DEB", "group": "fengyun-1c-debris", "lat": -5.171756108823321, "lon": 127.78077895345471, "alt_km": 1140.0010708949685, "timestamp": "2025-12-20T22:39:10.897912+00:00", "meta": {"OBJECT_NAME": "FENGYUN 1C DEB", "OBJECT_ID": "1999-025AB", "EPOCH": "2025-12-20T03:07:33.083328", "MEAN_MOTION": 12.65671771, "ECCENTRICITY": 0.0695379, "INCLINATION": 99.5803, "RA_OF_ASC_NODE": 307.9771, "ARG_OF_PERICENTER": 122.4318, "MEAN_ANOMALY": 310.1837, "EPHEMERIS_TYPE": 0, "CLASSIFICATION_TYPE": "U", "NORAD_CAT_ID": 29737, "ELEMENT_SET_NO": 999, "REV_AT_EPOCH": 86962, "BSTAR": 0.002783058, "MEAN_MOTION_DOT": 1.325e-05, "MEAN_MOTION_DDOT": 0}, "tle": {"line1": "1 29737U 99025AB  25354.13024402  .00001325  00000+0  27831-2 0  9991", "line2": "2 29737  99.5803 307.9771 0695379 122.4318 310.1837 12.65671771869625"}}, "geometry": {"type": "Point", "coordinates": [127.78077895345471, -5.171756108823321]}}, {"type": "Feature", "properties": {"norad_id": 29738, "name": "FENGYUN 1C DEB", "group": "fengyun-1c-debris", "lat": 70.99900003319682, "lon": 131.59892203177859, "alt_km": 2021.3322078833908, "timestamp": "2025-12-20T22:39:10.897922+00:00", "meta": {"OBJECT_NAME": "FENGYUN 1C DEB", "OBJECT_ID": "1999-025AC", "EPOCH": "2025-12-20T08:54:26.360352", "MEAN_MOTION": 12.61065637, "ECCENTRICITY": 0.08650411, "INCLINATION": 99.4089, "RA_OF_ASC_NODE": 159.9134, "ARG_OF_PERICENTER": 277.964, "MEAN_ANOMALY": 72.4255, "EPHEMERIS_TYPE": 0, "CLASSIFICATION_TYPE": "U", "NORAD_CAT_ID": 29738, "ELEMENT_SET_NO": 999, "REV_AT_EPOCH": 86313, "BSTAR": 0.0021906103, "MEAN_MOTION_DOT": 1.635e-05, "MEAN_MOTION_DDOT": 0}, "tle": {"line1": "1 29738U 99025AC  25354.37113843  .00001635  00000+0  21906-2 0  9997", "line2": "2 29738  99.4089 159.9134 0865041 277.9640  72.4255 12.61065637863134"}}, "geometry": {"type": "Point", "coordinates": [131.59892203177859, 70.99900003319682]}}, {"type": "Feature", "properties": {"norad_id": 29740, "name": "FENGYUN 1C DEB", "group": "fengyun-1c-debris", "lat": -33.52868831979529, "lon": -149.77808053547818, "alt_km": 2251.293573637323, "timestamp": "2025-12-20T22:39:10.897932+00:00", "meta": {"OBJECT_NAME": "FENGYUN 1C DEB", "OBJECT_ID": "1999-025AE", "EPOCH": "2025-12-20T03:00:13.463712", "MEAN_MOTION": 12.08327469, "ECCENTRICITY": 0.09740841, "INCLINATION": 99.0446, "RA_OF_ASC_NODE": 203.5791, "ARG_OF_PERICENTER": 183.9419, "MEAN_ANOMALY": 175.3525, "EPHEMERIS_TYPE": 0, "CLASSIFICATION_TYPE": "U", "NORAD_CAT_ID": 29740, "ELEMENT_SET_NO": 999, "REV_AT_EPOCH": 83024, "BSTAR": -0.0014442289, "MEAN_MOTION_DOT": -5.81e-06, "MEAN_MOTION_DDOT": 0}, "tle": {"line1": "1 29740U 99025AE  25354.12515583 -.00000581  00000+0 -14442-2 0  9998", "line2": "2 29740  99.0446 203.5791 0974084 183.9419 175.3525 12.08327469830247"}}, "geometry": {"type": "Point", "coordinates": [-149.77808053547818, -33.52868831979529]}}, {"type": "Feature", "properties": {"norad_id": 29741, "name": "FENGYUN 1C DEB", "group": "fengyun-1c-debris", "lat": -38.13088767365222, "lon": -125.76550123864308, "alt_km": 1547.5164358525808, "timestamp": "2025-12-20T22:39:10.897942+00:00", "meta": {"OBJECT_NAME": "FENGYUN 1C DEB", "OBJECT_ID": "1999-025AF", "EPOCH": "2025-12-19T14:59:30.978240", "MEAN_MOTION": 12.00963841, "ECCENTRICITY": 0.1025523, "INCLINATION": 99.1738, "RA_OF_ASC_NODE": 226.0032, "ARG_OF_PERICENTER": 50.3966, "MEAN_ANOMALY": 341.6311, "EPHEMERIS_TYPE": 0, "CLASSIFICATION_TYPE": "U", "NORAD_CAT_ID": 29741, "ELEMENT_SET_NO": 999, "REV_AT_EPOCH": 52266, "BSTAR": 0.0051973, "MEAN_MOTION_DOT": 2.023e-05, "MEAN_MOTION_DDOT": 0}, "tle": {"line1": "1 29741U 99025AF  25353.62466410  .00002023  00000+0  51973-2 0  9998", "line2": "2 29741  99.1738 226.0032 1025523  50.3966 341.6311 12.00963841522668"}}, "geometry": {"type": "Point", "coordinates": [-125.76550123864308, -38.13088767365222]}}, {"type": "Feature", "properties": {"norad_id": 29748, "name": "FENGYUN 1C DEB", "group": "fengyun-1c-debris", "lat": -64.85639989071902, "lon": -54.680641258567576, "alt_km": 1372.9486187351977, "timestamp": "2025-12-20T22:39:10.897952+00:00", "meta": {"OBJECT_NAME": "FENGYUN 1C DEB", "OBJECT_ID": "1999-025AN", "EPOCH": "2025-12-18T18:32:21.128928", "MEAN_MOTION": 11.90388386, "ECCENTRICITY": 0.08620111, "INCLINATION": 99.7832, "RA_OF_ASC_NODE": 282.1412, "ARG_OF_PERICENTER": 0.8877, "MEAN_ANOMALY": 359.3487, "EPHEMERIS_TYPE": 0, "CLASSIFICATION_TYPE": "U", "NORAD_CAT_ID": 29748, "ELEMENT_SET_NO": 999, "REV_AT_EPOCH": 78805, "BSTAR": 0.10881389, "MEAN_MOTION_DOT": 0.00022252, "MEAN_MOTION_DDOT": 0}, "tle": {"line1": "1 29748U 99025AN  25352.77246677  .00022252  00000+0  10881+0 0  9997", "line2": "2 29748  99.7832 282.1412 0862011   0.8877 359.3487 11.90388386788052"}}, "geometry": {"type": "Point", "coordinates": [-54.680641258567576, -64.85639989071902]}}]}